{"type": "FeatureCollection", "features": [ {"type": "Feature", "properties": {"norad_id": 31820, "name": "FENGYUN 1C DEB", "group": "fengyun-1c-debris", "lat": -38.28758044668273, "lon": -18.75707325778091, "alt_km": 652.5701070583837, "timestamp": "2025-12-22T04:03:39.453678+00:00", "meta": {"OBJECT_NAME": "FENGYUN 1C DEB", "OBJECT_ID": "1999-025CHJ", "EPOCH": "2025-12-15T10:09:27.904896", "MEAN_MOTION": 14.92265653, "ECCENTRICITY": 0.01498031, "INCLINATION": 98.9605, "RA_OF_ASC_NODE": 160.7284, "ARG_OF_PERICENTER": 3.3331, "MEAN_ANOMALY": 356.8846, "EPHEMERIS_TYPE": 0, "CLASSIFICATION_TYPE": "U", "NORAD_CAT_ID": 31820, "ELEMENT_SET_NO": 999, "REV_AT_EPOCH": 98296, "BSTAR": 0.0006023267, "MEAN_MOTION_DOT": 7.564e-05, "MEAN_MOTION_DDOT": 0}, "tle": {"line1": "1 31820U 99025CHJ 25349.42323964  .00007564  00000+0  60233-3 0  9993", "line2": "2 31820  98.9605 160.7284 0149803   3.3331 356.8846 14.92265653982966"}}, "geometry": {"type": "Point", "coordinates": [-18.75707325778091, -38.28758044668273]}}, {"type": "Feature", "properties": {"norad_id": 31821, "name": "FENGYUN 1C DEB", "group": "fengyun-1c-debris", "lat": -32.84626718771398, "lon": -113.96768603028545, "alt_km": 609.3603385259767, "timestamp": "2025-12-22T04:03:39.453688+00:00", "meta": {"OBJECT_NAME": "FENGYUN 1C DEB", "OBJECT_ID": "1999-025CHK", "EPOCH": "2025-12-19T22:55:39.354240", "MEAN_MOTION": 14.42205244, "ECCENTRICITY": 0.0219067, "INCLINATION": 98.1573, "RA_OF_ASC_NODE": 238.6004, "ARG_OF_PERICENTER": 352.8213, "MEAN_ANOMALY": 6.9855, "EPHEMERIS_TYPE": 0, "CLASSIFICATION_TYPE": "U", "NORAD_CAT_ID": 31821, "ELEMENT_SET_NO": 999, "REV_AT_EPOCH": 93765, "BSTAR": 0.0029417, "MEAN_MOTION_DOT": 0.00012905, "MEAN_MOTION_DDOT": 0}, "tle": {"line1": "1 31821U 99025CHK 25353.95531660  .00012905  00000+0  29417-2 0  9994", "line2": "2 31821  98.1573 238.6004 0219067 352.8213   6.9855 14.42205244937653"}}, "geometry": {"type": "Point", "coordinates": [-113.96768603028545, -32.84626718771398]}}, {"type": "Feature", "properties": {"norad_id": 31823, "name": "FENGYUN 1C DEB", "group": "fengyun-1c-debris", "lat": -36.793480274060364, "lon": -103.34090190297859, "alt_km": 656.9705002294677, "timestamp": "2025-12-22T04:03:39.453699+00:00", "meta": {"OBJECT_NAME": "FENGYUN 1C DEB", "OBJECT_ID": "1999-025CHM", "EPOCH": "2025-12-21T12:19:43.904640", "MEAN_MOTION": 14.65820539, "ECCENTRICITY": 0.0037275, "INCLINATION": 99.5092, "RA_OF_ASC_NODE": 83.1031, "ARG_OF_PERICENTER": 193.822, "MEAN_ANOMALY": 166.1962, "EPHEMERIS_TYPE": 0, "CLASSIFICATION_TYPE": "U", "NORAD_CAT_ID": 31823, "ELEMENT_SET_NO": 999, "REV_AT_EPOCH": 96846, "BSTAR": 0.001146339, "MEAN_MOTION_DOT": 6.261e-05, "MEAN_MOTION_DDOT": 0}, "tle": {"line1": "1 31823U 99025CHM 25355.51370260  .00006261  00000+0  11463-2 0  9997", "line2": "2 31823  99.5092  83.1031 0037275 193.8220 166.1962 14.65820539968465"}}, "geometry": {"type": "Point", "coordinates": [-103.34090190297859, -36.793480274060364]}}, {"type": "Feature", "properties": {"norad_id": 31825, "name": "FENGYUN 1C DEB", "group": "fengyun-1c-debris", "lat": -49.35616229196884, "lon": 165.3822632632904, "alt_km": 805.7653267325786, "timestamp": "2025-12-22T04:03:39.453709+00:00", "meta": {"OBJECT_NAME": "FENGYUN 1C DEB", "OBJECT_ID": "1999-025CHP", "EPOCH": "2025-12-21T05:00:31.227264", "MEAN_MOTION": 14.21674081, "ECCENTRICITY": 0.0165162, "INCLINATION": 98.5901, "RA_OF_ASC_NODE": 354.5886, "ARG_OF_PERICENTER": 313.6987, "MEAN_ANOMALY": 45.0606, "EPHEMERIS_TYPE": 0, "CLASSIFICATION_TYPE": "U", "NORAD_CAT_ID": 31825, "ELEMENT_SET_NO": 999, "REV_AT_EPOCH": 95742, "BSTAR": 0.00053951, "MEAN_MOTION_DOT": 1.315e-05, "MEAN_MOTION_DDOT": 0}, "tle": {"line1": "1 31825U 99025CHP 25355.20869476  .00001315  00000+0  53951-3 0  9991", "line2": "2 31825  98.5901 354.5886 0165162 313.6987  45.0606 14.21674081957422"}}, "geometry": {"type": "Point", "coordinates": [165.3822632632904, -49.35616229196884]}}, {"type": "Feature", "properties": {"norad_id": 31826, "name": "FENGYUN 1C DEB", "group": "fengyun-1c-debris", "lat": 14.483499527710775, "lon": -15.197545885074065, "alt_km": 903.6487214996223, "timestamp": "2025-12-22T04:03:39.453719+00:00", "meta": {"OBJECT_NAME": "FENGYUN 1C DEB", "OBJECT_ID": "1999-025CHQ", "EPOCH": "2025-12-19T10:43:46.840224", "MEAN_MOTION": 14.19284767, "ECCENTRICITY": 0.0124248, "INCLINATION": 98.6261, "RA_OF_ASC_NODE": 344.3988, "ARG_OF_PERICENTER": 169.9171, "MEAN_ANOMALY": 344.9058, "EPHEMERIS_TYPE": 0, "CLASSIFICATION_TYPE": "U", "NORAD_CAT_ID": 31826, "ELEMENT_SET_NO": 999, "REV_AT_EPOCH": 95909, "BSTAR": 0.00024759, "MEAN_MOTION_DOT": 5.19e-06, "MEAN_MOTION_DDOT": 0}, "tle": {"line1": "1 31826U 99025CHQ 25353.44706991  .00000519  00000+0  24759-3 0  9997", "line2": "2 31826  98.6261 344.3988 0124248 169.9171 344.9058 14.19284767959092"}}, "geometry": {"type": "Point", "coordinates": [-15.197545885074065, 14.483499527710775]}}, {"type": "Feature", "properties": {"norad_id": 31829, "name": "FENGYUN 1C DEB", "group": "fengyun-1c-debris", "lat": -67.85945990882, "lon": -36.96179399319618, "alt_km": 982.4825481981443, "timestamp": "2025-12-22T04:03:39.453730+00:00", "meta": {"OBJECT_NAME": "FENGYUN 1C DEB", "OBJECT_ID": "1999-025CHT", "EPOCH": "2025-12-21T18:18:52.945056", "MEAN_MOTION": 13.88692833, "ECCENTRICITY": 0.0169321, "INCLINATION": 98.8356, "RA_OF_ASC_NODE": 165.1278, "ARG_OF_PERICENTER": 139.92, "MEAN_ANOMALY": 238.7568, "EPHEMERIS_TYPE": 0, "CLASSIFICATION_TYPE": "U", "NORAD_CAT_ID": 31829, "ELEMENT_SET_NO": 999, "REV_AT_EPOCH": 94273, "BSTAR": 0.00033425, "MEAN_MOTION_DOT": 4.12e-06, "MEAN_MOTION_DDOT": 0}, "tle": {"line1": "1 31829U 99025CHT 25355.76311279  .00000412  00000+0  33425-3 0  9990", "line2": "2 31829  98.8356 165.1278 0169321 139.9200 238.7568 13.88692833942735"}}, "geometry": {"type": "Point", "coordinates": [-36.96179399319618, -67.85945990882]}}, {"type": "Feature", "properties": {"norad_id": 31830, "name": "FENGYUN 1C DEB", "group": "fengyun-1c-debris", "lat": 76.06129271585914, "lon": 61.05256600163542, "alt_km": 1060.0297709284478, "timestamp": "2025-12-22T04:03:39.453740+00:00", "meta": {"OBJECT_NAME": "FENGYUN 1C DEB", "OBJECT_ID": "1999-025CHU", "EPOCH": "2025-12-19T06:31:29.496288", "MEAN_MOTION": 13.8344764, "ECCENTRICITY": 0.0182552, "INCLINATION": 99.163, "RA_OF_ASC_NODE": 98.7941, "ARG_OF_PERICENTER": 296.9277, "MEAN_ANOMALY": 119.258, "EPHEMERIS_TYPE": 0, "CLASSIFICATION_TYPE": "U", "NORAD_CAT_ID": 31830, "ELEMENT_SET_NO": 999, "REV_AT_EPOCH": 92830, "BSTAR": 0.0015363, "MEAN_MOTION_DOT": 1.879e-05, "MEAN_MOTION_DDOT": 0}, "tle": {"line1": "1 31830U 99025CHU 25353.27186917  .00001879  00000+0  15363-2 0  9993", "line2": "2 31830  99.1630  98.7941 0182552 296.9277 119.2580 13.83447640928306"}}, "geometry": {"type": "Point", "coordinates": [61.05256600163542, 76.06129271585914]}}, {"type": "Feature", "properties": {"norad_id": 31834, "name": "FENGYUN 1C DEB", "group": "fengyun-1c-debris", "lat": 4.8875599747911895, "lon": 36.34150939171924, "alt_km": 949.6169521260972, "timestamp": "2025-12-22T04:03:39.453750+00:00", "meta": {"OBJECT_NAME": "FENGYUN 1C DEB", "OBJECT_ID": "1999-025CHY", "EPOCH": "2025-12-20T20:26:22.234272", "MEAN_MOTION": 14.03159289, "ECCENTRICITY": 0.01625181, "INCLINATION": 98.367, "RA_OF_ASC_NODE": 214.4081, "ARG_OF_PERICENTER": 54.7692, "MEAN_ANOMALY": 306.8567, "EPHEMERIS_TYPE": 0, "CLASSIFICATION_TYPE": "U", "NORAD_CAT_ID": 31834, "ELEMENT_SET_NO": 999, "REV_AT_EPOCH": 63824, "BSTAR": 0.00023339915, "MEAN_MOTION_DOT": 3.7e-06, "MEAN_MOTION_DDOT": 0}, "tle": {"line1": "1 31834U 99025CHY 25354.85164623  .00000370  00000+0  23340-3 0  9992", "line2": "2 31834  98.3670 214.4081 0162518  54.7692 306.8567 14.03159289638240"}}, "geometry": {"type": "Point", "coordinates": [36.34150939171924, 4.8875599747911895]}}, {"type": "Feature", "properties": {"norad_id": 31837, "name": "FENGYUN 1C DEB", "group": "fengyun-1c-debris", "lat": -60.721344357580726, "lon": -122.88987720590701, "alt_km": 645.8154710492654, "timestamp": "2025-12-22T04:03:39.453760+00:00", "meta": {"OBJECT_NAME": "FENGYUN 1C DEB", "OBJECT_ID": "1999-025CJB", "EPOCH": "2025-12-18T11:29:15.674496", "MEAN_MOTION": 14.82330224, "ECCENTRICITY": 0.00931656, "INCLINATION": 98.1015, "RA_OF_ASC_NODE": 68.0911, "ARG_OF_PERICENTER": 359.156, "MEAN_ANOMALY": 0.9481, "EPHEMERIS_TYPE": 0, "CLASSIFICATION_TYPE": "U", "NORAD_CAT_ID": 31837, "ELEMENT_SET_NO": 999, "REV_AT_EPOCH": 98444, "BSTAR": 0.00086076485, "MEAN_MOTION_DOT": 7.369e-05, "MEAN_MOTION_DDOT": 0}, "tle": {"line1": "1 31837U 99025CJB 25352.47865364  .00007369  00000+0  86076-3 0  9991", "line2": "2 31837  98.1015  68.0911 0093165 359.1560   0.9481 14.82330224984446"}}, "geometry": {"type": "Point", "coordinates": [-122.88987720590701, -60.721344357580726]}}, {"type": "Feature", "properties": {"norad_id": 31838, "name": "FENGYUN 1C DEB", "group": "fengyun-1c-debris", "lat": -33.93408717147062, "lon": -139.18757334742972, "alt_km": 850.3645738519781, "timestamp": "2025-12-22T04:03:39.453770+00:00", "meta": {"OBJECT_NAME": "FENGYUN 1C DEB", "OBJECT_ID": "1999-025CJC", "EPOCH": "2025-12-17T08:26:31.079040", "MEAN_MOTION": 14.21147066, "ECCENTRICITY": 0.00383301, "INCLINATION": 98.7181, "RA_OF_ASC_NODE": 41.9841, "ARG_OF_PERICENTER": 82.4051, "MEAN_ANOMALY": 338.6922, "EPHEMERIS_TYPE": 0, "CLASSIFICATION_TYPE": "U", "NORAD_CAT_ID": 31838, "ELEMENT_SET_NO": 999, "REV_AT_EPOCH": 64642, "BSTAR": 0.00054487511, "MEAN_MOTION_DOT": 1.15e-05, "MEAN_MOTION_DDOT": 0}, "tle": {"line1": "1 31838U 99025CJC 25351.35174860  .00001150  00000+0  54488-3 0  9996", "line2": "2 31838  98.7181  41.9841 0038330  82.4051 338.6922 14.21147066646420"}}, "geometry": {"type": "Point", "coordinates": [-139.18757334742972, -33.93408717147062]}}]}